CCSDS_OMM_VERS = 2.0
CREATION_DATE  = 
ORIGINATOR     = 

OBJECT_NAME    = STARLINK-36332
OBJECT_ID      = 2026-034N
CENTER_NAME    = EARTH
REF_FRAME      = TEME
TIME_SYSTEM    = UTC
MEAN_ELEMENT_THEORY = SGP/SGP4

EPOCH          = 2026-03-06T13:28:47.283168
MEAN_MOTION    = 15.80970793
ECCENTRICITY   = .00015022
INCLINATION    = 53.1594
RA_OF_ASC_NODE = 226.9267
ARG_OF_PERICENTER = 42.7881
MEAN_ANOMALY   = 317.3259

EPHEMERIS_TYPE = 0
CLASSIFICATION_TYPE = U
NORAD_CAT_ID   = 67862
ELEMENT_SET_NO = 999
REV_AT_EPOCH   = 344
BSTAR          = .14953114E-2
MEAN_MOTION_DOT = .306521E-2
MEAN_MOTION_DDOT = 0

CCSDS_OMM_VERS = 2.0
CREATION_DATE  = 
ORIGINATOR     = 

OBJECT_NAME    = STARLINK-36835
OBJECT_ID      = 2026-034P
CENTER_NAME    = EARTH
REF_FRAME      = TEME
TIME_SYSTEM    = UTC
MEAN_ELEMENT_THEORY = SGP/SGP4

EPOCH          = 2026-03-06T13:27:42.335424
MEAN_MOTION    = 15.80963622
ECCENTRICITY   = .00012718
INCLINATION    = 53.1599
RA_OF_ASC_NODE = 226.9211
ARG_OF_PERICENTER = 36.2553
MEAN_ANOMALY   = 323.8556

EPHEMERIS_TYPE = 0
CLASSIFICATION_TYPE = U
NORAD_CAT_ID   = 67863
ELEMENT_SET_NO = 999
REV_AT_EPOCH   = 344
BSTAR          = .13753239E-2
MEAN_MOTION_DOT = .280932E-2
MEAN_MOTION_DDOT = 0

CCSDS_OMM_VERS = 2.0
CREATION_DATE  = 
ORIGINATOR     = 

OBJECT_NAME    = STARLINK-36831
OBJECT_ID      = 2026-034Q
CENTER_NAME    = EARTH
REF_FRAME      = TEME
TIME_SYSTEM    = UTC
MEAN_ELEMENT_THEORY = SGP/SGP4

EPOCH          = 2026-03-06T14:57:39.358080
MEAN_MOTION    = 15.81008248
ECCENTRICITY   = .00007943
INCLINATION    = 53.1591
RA_OF_ASC_NODE = 226.5995
ARG_OF_PERICENTER = 86.5420
MEAN_ANOMALY   = 273.5694

EPHEMERIS_TYPE = 0
CLASSIFICATION_TYPE = U
NORAD_CAT_ID   = 67864
ELEMENT_SET_NO = 999
REV_AT_EPOCH   = 345
BSTAR          = .18003493E-2
MEAN_MOTION_DOT = .372732E-2
MEAN_MOTION_DDOT = 0

CCSDS_OMM_VERS = 2.0
CREATION_DATE  = 
ORIGINATOR     = 

OBJECT_NAME    = STARLINK-36738
OBJECT_ID      = 2026-034R
CENTER_NAME    = EARTH
REF_FRAME      = TEME
TIME_SYSTEM    = UTC
MEAN_ELEMENT_THEORY = SGP/SGP4

EPOCH          = 2026-03-06T13:25:32.635200
MEAN_MOTION    = 15.80927970
ECCENTRICITY   = .00007117
INCLINATION    = 53.1598
RA_OF_ASC_NODE = 226.9111
ARG_OF_PERICENTER = 62.5353
MEAN_ANOMALY   = 297.5742

EPHEMERIS_TYPE = 0
CLASSIFICATION_TYPE = U
NORAD_CAT_ID   = 67865
ELEMENT_SET_NO = 999
REV_AT_EPOCH   = 344
BSTAR          = .74034579E-3
MEAN_MOTION_DOT = .148332E-2
MEAN_MOTION_DDOT = 0

CCSDS_OMM_VERS = 2.0
CREATION_DATE  = 
ORIGINATOR     = 

OBJECT_NAME    = STARLINK-36780
OBJECT_ID      = 2026-034S
CENTER_NAME    = EARTH
REF_FRAME      = TEME
TIME_SYSTEM    = UTC
MEAN_ELEMENT_THEORY = SGP/SGP4

EPOCH          = 2026-03-06T13:24:26.386272
MEAN_MOTION    = 15.80906965
ECCENTRICITY   = .00016047
INCLINATION    = 53.1602
RA_OF_ASC_NODE = 226.9048
ARG_OF_PERICENTER = 38.5080
MEAN_ANOMALY   = 321.6057

EPHEMERIS_TYPE = 0
CLASSIFICATION_TYPE = U
NORAD_CAT_ID   = 67866
ELEMENT_SET_NO = 999
REV_AT_EPOCH   = 344
BSTAR          = .35978056E-3
MEAN_MOTION_DOT = .71009E-3
MEAN_MOTION_DDOT = 0

CCSDS_OMM_VERS = 2.0
CREATION_DATE  = 
ORIGINATOR     = 

OBJECT_NAME    = STARLINK-36761
OBJECT_ID      = 2026-034T
CENTER_NAME    = EARTH
REF_FRAME      = TEME
TIME_SYSTEM    = UTC
MEAN_ELEMENT_THEORY = SGP/SGP4

EPOCH          = 2026-03-06T14:54:25.119648
MEAN_MOTION    = 15.80957311
ECCENTRICITY   = .00009179
INCLINATION    = 53.1601
RA_OF_ASC_NODE = 226.5834
ARG_OF_PERICENTER = 43.4780
MEAN_ANOMALY   = 316.6315

EPHEMERIS_TYPE = 0
CLASSIFICATION_TYPE = U
NORAD_CAT_ID   = 67867
ELEMENT_SET_NO = 999
REV_AT_EPOCH   = 345
BSTAR          = .11016411E-2
MEAN_MOTION_DOT = .223311E-2
MEAN_MOTION_DDOT = 0

CCSDS_OMM_VERS = 2.0
CREATION_DATE  = 
ORIGINATOR     = 

OBJECT_NAME    = STARLINK-36762
OBJECT_ID      = 2026-034U
CENTER_NAME    = EARTH
REF_FRAME      = TEME
TIME_SYSTEM    = UTC
MEAN_ELEMENT_THEORY = SGP/SGP4

EPOCH          = 2026-03-06T13:22:18.359616
MEAN_MOTION    = 15.80888651
ECCENTRICITY   = .00014525
INCLINATION    = 53.1598
RA_OF_ASC_NODE = 226.8953
ARG_OF_PERICENTER = 46.8889
MEAN_ANOMALY   = 313.2255

EPHEMERIS_TYPE = 0
CLASSIFICATION_TYPE = U
NORAD_CAT_ID   = 67868
ELEMENT_SET_NO = 999
REV_AT_EPOCH   = 344
BSTAR          = .10658544E-2
MEAN_MOTION_DOT = .215144E-2
MEAN_MOTION_DDOT = 0

CCSDS_OMM_VERS = 2.0
CREATION_DATE  = 
ORIGINATOR     = 

OBJECT_NAME    = STARLINK-36779
OBJECT_ID      = 2026-034V
CENTER_NAME    = EARTH
REF_FRAME      = TEME
TIME_SYSTEM    = UTC
MEAN_ELEMENT_THEORY = SGP/SGP4

EPOCH          = 2026-03-06T14:52:15.474720
MEAN_MOTION    = 15.80960402
ECCENTRICITY   = .00008946
INCLINATION    = 53.1599
RA_OF_ASC_NODE = 226.5733
ARG_OF_PERICENTER = 64.9330
MEAN_ANOMALY   = 295.1786

EPHEMERIS_TYPE = 0
CLASSIFICATION_TYPE = U
NORAD_CAT_ID   = 67869
ELEMENT_SET_NO = 999
REV_AT_EPOCH   = 345
BSTAR          = .11046653E-2
MEAN_MOTION_DOT = .223975E-2
MEAN_MOTION_DDOT = 0

CCSDS_OMM_VERS = 2.0
CREATION_DATE  = 
ORIGINATOR     = 

OBJECT_NAME    = STARLINK-36770
OBJECT_ID      = 2026-034W
CENTER_NAME    = EARTH
REF_FRAME      = TEME
TIME_SYSTEM    = UTC
MEAN_ELEMENT_THEORY = SGP/SGP4

EPOCH          = 2026-03-06T14:50:05.733888
MEAN_MOTION    = 15.80964340
ECCENTRICITY   = .00004536
INCLINATION    = 53.1598
RA_OF_ASC_NODE = 226.5629
ARG_OF_PERICENTER = 25.8582
MEAN_ANOMALY   = 334.2464

EPHEMERIS_TYPE = 0
CLASSIFICATION_TYPE = U
NORAD_CAT_ID   = 67870
ELEMENT_SET_NO = 999
REV_AT_EPOCH   = 345
BSTAR          = .11350171E-2
MEAN_MOTION_DOT = .230368E-2
MEAN_MOTION_DDOT = 0

CCSDS_OMM_VERS = 2.0
CREATION_DATE  = 
ORIGINATOR     = 

OBJECT_NAME    = STARLINK-36769
OBJECT_ID      = 2026-034X
CENTER_NAME    = EARTH
REF_FRAME      = TEME
TIME_SYSTEM    = UTC
MEAN_ELEMENT_THEORY = SGP/SGP4

EPOCH          = 2026-03-06T14:51:10.634112
MEAN_MOTION    = 15.80952512
ECCENTRICITY   = .00009187
INCLINATION    = 53.1600
RA_OF_ASC_NODE = 226.5684
ARG_OF_PERICENTER = 43.7522
MEAN_ANOMALY   = 316.3573

EPHEMERIS_TYPE = 0
CLASSIFICATION_TYPE = U
NORAD_CAT_ID   = 67871
ELEMENT_SET_NO = 999
REV_AT_EPOCH   = 345
BSTAR          = .10726107E-2
MEAN_MOTION_DOT = .217204E-2
MEAN_MOTION_DDOT = 0

CCSDS_OMM_VERS = 2.0
CREATION_DATE  = 
ORIGINATOR     = 

OBJECT_NAME    = STARLINK-36786
OBJECT_ID      = 2026-034Y
CENTER_NAME    = EARTH
REF_FRAME      = TEME
TIME_SYSTEM    = UTC
MEAN_ELEMENT_THEORY = SGP/SGP4

EPOCH          = 2026-03-06T14:49:00.910560
MEAN_MOTION    = 15.80950585
ECCENTRICITY   = .00009982
INCLINATION    = 53.1598
RA_OF_ASC_NODE = 226.5581
ARG_OF_PERICENTER = 47.0957
MEAN_ANOMALY   = 313.0150

EPHEMERIS_TYPE = 0
CLASSIFICATION_TYPE = U
NORAD_CAT_ID   = 67872
ELEMENT_SET_NO = 999
REV_AT_EPOCH   = 345
BSTAR          = .90062535E-3
MEAN_MOTION_DOT = .181487E-2
MEAN_MOTION_DDOT = 0

CCSDS_OMM_VERS = 2.0
CREATION_DATE  = 
ORIGINATOR     = 

OBJECT_NAME    = STARLINK-36783
OBJECT_ID      = 2026-034Z
CENTER_NAME    = EARTH
REF_FRAME      = TEME
TIME_SYSTEM    = UTC
MEAN_ELEMENT_THEORY = SGP/SGP4

EPOCH          = 2026-03-06T14:47:56.232384
MEAN_MOTION    = 15.80961231
ECCENTRICITY   = .00009161
INCLINATION    = 53.1598
RA_OF_ASC_NODE = 226.5523
ARG_OF_PERICENTER = 44.2453
MEAN_ANOMALY   = 315.8643

EPHEMERIS_TYPE = 0
CLASSIFICATION_TYPE = U
NORAD_CAT_ID   = 67873
ELEMENT_SET_NO = 999
REV_AT_EPOCH   = 345
BSTAR          = .11294751E-2
MEAN_MOTION_DOT = .229169E-2
MEAN_MOTION_DDOT = 0

