STARLINK-36332          
1 67862U 26034N   26065.56165837  .00306521  00000+0  14953-2 0  9994
2 67862  53.1594 226.9267 0001502  42.7881 317.3259 15.80970793  3440
STARLINK-36835          
1 67863U 26034P   26065.56090666  .00280932  00000+0  13753-2 0  9996
2 67863  53.1599 226.9211 0001271  36.2553 323.8556 15.80963622  3447
STARLINK-36831          
1 67864U 26034Q   26065.62337220  .00372732  00000+0  18003-2 0  9997
2 67864  53.1591 226.5995 0000794  86.5420 273.5694 15.81008248  3455
STARLINK-36738          
1 67865U 26034R   26065.55940550  .00148332  00000+0  74035-3 0  9991
2 67865  53.1598 226.9111 0000711  62.5353 297.5742 15.80927970  3445
STARLINK-36780          
1 67866U 26034S   26065.55863873  .00071009  00000+0  35978-3 0  9993
2 67866  53.1602 226.9048 0001604  38.5080 321.6057 15.80906965  3442
STARLINK-36761          
1 67867U 26034T   26065.62112407  .00223311  00000+0  11016-2 0  9993
2 67867  53.1601 226.5834 0000917  43.4780 316.6315 15.80957311  3452
STARLINK-36762          
1 67868U 26034U   26065.55715694  .00215144  00000+0  10659-2 0  9990
2 67868  53.1598 226.8953 0001452  46.8889 313.2255 15.80888651  3440
STARLINK-36779          
1 67869U 26034V   26065.61962355  .00223975  00000+0  11047-2 0  9999
2 67869  53.1599 226.5733 0000894  64.9330 295.1786 15.80960402  3459
STARLINK-36770          
1 67870U 26034W   26065.61812192  .00230368  00000+0  11350-2 0  9995
2 67870  53.1598 226.5629 0000453  25.8582 334.2464 15.80964340  3453
STARLINK-36769          
1 67871U 26034X   26065.61887308  .00217204  00000+0  10726-2 0  9997
2 67871  53.1600 226.5684 0000918  43.7522 316.3573 15.80952512  3458
STARLINK-36786          
1 67872U 26034Y   26065.61737165  .00181487  00000+0  90063-3 0  9999
2 67872  53.1598 226.5581 0000998  47.0957 313.0150 15.80950585  3451
STARLINK-36783          
1 67873U 26034Z   26065.61662306  .00229169  00000+0  11295-2 0  9993
2 67873  53.1598 226.5523 0000916  44.2453 315.8643 15.80961231  3455
